296P/Garradd,e,25.2286,263.6080,350.0904,3.496517,0.1507477,0.47875763,50.9791,08/22.0/2021,2000,g 14.0,4.0
# From MPC102956
297P/Beshore,e,10.3274,97.6595,132.5526,3.443657,0.1542319,0.31942582,32.5370,08/22.0/2021,2000,g 15.0,4.0
# From MPC114609
298P/Christensen,e,7.8707,52.8222,100.6714,3.591425,0.1448118,0.38655413,50.6428,08/22.0/2021,2000,g 15.0,4.0
# From MPC101100
299P/Catalina-PANSTARRS,e,10.4735,271.6247,323.8776,4.385551,0.1073168,0.28136479,254.5078,08/22.0/2021,2000,g 11.5,4.0
# From MPC114609
300P/Catalina,e,5.6748,95.6537,222.9002,2.699880,0.2221710,0.69179941,227.3657,08/22.0/2021,2000,g 16.0,4.0
# From MPC 89014
301P/LINEAR-NEAT,e,10.3398,351.1749,193.6836,5.739096,0.0716867,0.58520376,182.9364,08/22.0/2021,2000,g 13.0,4.0
# From MPEC 2020-HN5
302P/Lemmon-PANSTARRS,e,6.0341,121.7537,208.2773,4.275717,0.1114784,0.23022639,215.8183,08/22.0/2021,2000,g 12.5,4.0
# From MPC 92278
303P/NEAT,e,7.0215,347.9720,356.8967,5.046886,0.0869298,0.51073807,217.2940,08/22.0/2021,2000,g 13.5,4.0
# From MPEC 2020-N08
304P/Ory,e,2.6068,58.9267,335.2349,3.150551,0.1762480,0.60058528,66.0157,08/22.0/2021,2000,g 16.5,4.0
# From MPC101100
305P/Skiff,e,11.6525,240.1122,147.2981,4.643499,0.0985000,0.69342005,243.4322,08/22.0/2021,2000,g 18.0,4.0
# From MPC 92278
306P/LINEAR,e,8.3115,341.3728,0.8472,3.123224,0.1785663,0.59333181,103.0386,08/22.0/2021,2000,g 19.0,4.0
# From MPC 92278
307P/LINEAR,e,4.4348,158.1583,222.1276,5.792272,0.0707018,0.67488296,172.1780,08/22.0/2021,2000,g 15.0,4.0
# From MPC109148
308P/Lagerkvist-Carsenty,e,4.8513,63.0754,333.5890,6.603180,0.0580864,0.36362806,133.5510,08/22.0/2021,2000,g 13.0,2.0
# From MPC 94284
309P/LINEAR,e,17.0235,10.1441,49.9463,4.372030,0.1078151,0.61774336,257.5144,08/22.0/2021,2000,g 15.0,4.0
# From MPC 98566
310P/Hill,e,13.1278,8.9247,31.8105,4.178860,0.1153765,0.42191928,268.4374,08/22.0/2021,2000,g 13.5,4.0
# From MPEC 2021-BE3
311P/PANSTARRS,e,4.9695,279.2240,144.5634,2.188772,0.3043711,0.11554967,96.9734,08/22.0/2021,2000,g 17.0,4.0
# From MPEC 2021-BE3
312P/NEAT,e,19.7685,144.6687,207.5609,3.466979,0.1526783,0.42787167,50.5274,08/22.0/2021,2000,g 16.0,4.0
# From MPEC 2021-BE3
313P/Gibbs,e,10.9824,105.9735,254.7106,3.162788,0.1752261,0.23502989,86.4648,08/22.0/2021,2000,g 15.0,4.0
# From MPC105243
314P/Montani,e,3.9806,267.6123,214.1007,7.267656,0.0503052,0.41602451,89.5102,08/22.0/2021,2000,g  9.5,4.0
# From MPEC 2021-N06
315P/LONEOS,e,17.7540,68.8937,65.7124,4.939544,0.0897788,0.52124834,155.1528,08/22.0/2021,2000,g 11.0,4.0
# From MPC 92279
316P/LONEOS-Christensen,e,9.8395,246.5934,193.1333,4.364599,0.1080905,0.15690595,231.9699,08/22.0/2021,2000,g 13.5,4.0
# From MPEC 2020-C98
317P/WISE,e,11.9500,275.5027,334.8807,2.964144,0.1931324,0.57049359,63.7043,08/22.0/2021,2000,g 17.5,4.0
# From MPC102103
318P/McNaught-Hartley,e,17.8794,35.5728,313.1963,7.498904,0.0479963,0.67528548,102.1340,08/22.0/2021,2000,g  8.5,6.0
# From MPC 97499
319P/Catalina-McNaught,e,15.0948,111.3732,203.6654,3.566892,0.1463084,0.66662352,327.6034,08/22.0/2021,2000,g 15.0,4.0
# From MPC 96281
320P/McNaught,e,4.9089,295.9291,0.7748,3.093419,0.1811532,0.68568281,39.2860,08/22.0/2021,2000,g 20.5,4.0
# From MPC105243
321P/SOHO,e,20.0847,165.0203,172.7437,2.423443,0.2612492,0.98111293,0.0000,01/17.3519/2020,2000,g 20.0,4.0
# From MPC102103
322P/SOHO,e,11.4668,351.5196,56.8800,2.507956,0.2481556,0.97983928,0.0000,08/31.4211/2019,2000,g 19.0,4.0
# From MPEC 2016-Y36
323P/SOHO,e,5.3387,324.3749,353.0555,2.582576,0.2374785,0.98484234,0.0000,01/17.7677/2021,2000,g 20.0,4.0
# From MPEC 2021-P47
324P/LaSagra,e,21.4023,270.6016,57.6253,3.096309,0.1808996,0.15430995,19.5949,08/22.0/2021,2000,g 13.0,4.0
# From MPC114609
325P/Yang-Gao,e,16.6941,257.5661,343.6941,3.523574,0.1490147,0.59349382,327.3412,08/22.0/2021,2000,g 14.0,4.0
# From MPC103849
326P/Hill,e,2.4709,99.8106,278.5983,4.063327,0.1203321,0.31781609,256.4326,08/22.0/2021,2000,g 13.5,4.0
# From MPC 97499
327P/Van Ness,e,36.2509,173.9840,185.0394,3.562105,0.1466034,0.56308414,304.8103,08/22.0/2021,2000,g 16.0,4.0
# From MPC109148
328P/LONEOS-Tucker,e,17.6731,341.6351,30.4920,4.194195,0.1147443,0.55225009,237.1024,08/22.0/2021,2000,g 14.5,4.0
# From MPC101101
329P/LINEAR-Catalina,e,21.6752,87.6729,343.5285,5.191073,0.0833333,0.67726686,174.3500,08/22.0/2021,2000,g 13.5,4.0
# From MPC105243
330P/Catalina,e,15.6951,293.0945,188.9441,6.628200,0.0577578,0.54830315,105.2377,08/22.0/2021,2000,g 12.0,4.0
# From MPEC 2021-BE3
331P/Gibbs,e,9.7381,216.7708,183.9860,3.004503,0.1892540,0.04100348,61.5485,08/22.0/2021,2000,g 12.0,4.0
# From MPEC 2016-K18
332P/Ikeya-Murakami,e,9.3800,3.7860,152.3399,3.089273,0.1815180,0.48948015,0.6507,08/22.0/2021,2000,g 18.0,4.0
# From MPEC 2016-EI8
332P-B/Ikeya-Murakami,e,9.3805,3.8028,152.3711,3.082329,0.1821317,0.48970701,359.9699,03/17.0/2016,2000,g 19.0,4.0
# From MPEC 2016-K18
332P-C/Ikeya-Murakami,e,9.3791,3.7865,152.3312,3.089239,0.1815210,0.48948559,0.6648,08/22.0/2021,2000,g 16.5,4.0
# From MPEC 2016-ED0
332P-D/Ikeya-Murakami,e,9.3761,3.7923,152.4393,3.081138,0.1822373,0.48977814,359.9486,03/17.0/2016,2000,g 19.0,4.0
# From MPEC 2016-ED0
332P-E/Ikeya-Murakami,e,9.3774,3.8228,152.2825,3.079877,0.1823493,0.48922008,359.9889,03/17.0/2016,2000,g 21.0,4.0
# From MPEC 2016-ED0
332P-F/Ikeya-Murakami,e,9.5293,3.4757,152.8203,3.163214,0.1751908,0.49918860,359.8501,03/17.0/2016,2000,g 21.0,4.0
# From MPEC 2016-ED0
332P-G/Ikeya-Murakami,e,9.2523,3.6955,154.4000,3.050519,0.1849880,0.49200362,359.9006,03/19.0/2016,2000,g 19.0,4.0
# From MPC100285
332P-H/Ikeya-Murakami,e,9.3796,3.7862,152.3319,3.089424,0.1815046,0.48952087,0.5997,08/22.0/2021,2000,g 19.0,4.0
# From MPEC 2016-ED0
332P-I/Ikeya-Murakami,e,9.3791,3.8048,152.3297,3.081767,0.1821815,0.48955490,359.9360,03/17.0/2016,2000,g 20.5,2.0
# From MPEC 2016-EI8
332P-J/Ikeya-Murakami,e,9.4296,3.6729,152.7712,3.115165,0.1792596,0.49429435,359.8613,03/17.0/2016,2000,g 20.5,2.0
# From MPEC 2020-L06
333P/LINEAR,e,131.9809,115.6262,25.9999,4.219379,0.1137186,0.73677498,224.0795,08/22.0/2021,2000,g 15.0,4.0
# From MPC115888
334P/NEAT,e,20.4255,90.6630,90.0979,6.838962,0.0551085,0.35132178,84.7359,08/22.0/2021,2000,g 10.5,4.0
# From MPC100285
335P/Gibbs,e,7.2934,330.8478,162.2854,3.577530,0.1456562,0.54593980,308.2887,08/22.0/2021,2000,g 17.0,4.0
# From MPC105244
336P/McNaught,e,17.8332,298.2339,308.7617,5.033026,0.0872892,0.44490243,145.0608,08/22.0/2021,2000,g 13.5,4.0
# From MPEC 2021-N06
337P/WISE,e,15.3715,106.0677,161.0091,3.286842,0.1654001,0.49674994,308.2111,08/22.0/2021,2000,g 17.0,4.0
# From MPC104796
338P/McNaught,e,25.3819,9.7925,4.4085,3.896657,0.1281344,0.41160412,222.0065,08/22.0/2021,2000,g 12.0,4.0
# From MPC101101
339P/Gibbs,e,5.7336,172.7290,27.5097,3.697038,0.1386511,0.63550914,257.5221,08/22.0/2021,2000,g 17.0,4.0
# From MPC133426
340P/Boattini,e,2.0791,291.7165,35.8713,4.250960,0.1124537,0.28082957,195.0959,08/22.0/2021,2000,g 14.3,4.0
# From MPEC 2021-BE3
341P/Gibbs,e,3.7961,29.9754,312.1728,4.292960,0.1108074,0.41558221,211.6567,08/22.0/2021,2000,g 12.5,4.0
# From MPC101101
342P/SOHO,e,11.6657,27.7231,73.2497,3.042805,0.1856918,0.98276943,0.0000,10/19.3008/2021,2000,g  9.0,4.0
# From MPC109148
343P/NEAT-LONEOS,e,5.5851,257.1929,137.3829,5.459770,0.0772578,0.58440100,128.7332,08/22.0/2021,2000,g 14.0,4.0
# From MPC109148
344P/Read,e,3.4912,273.1669,140.3784,4.864894,0.0918531,0.42213784,161.1970,08/22.0/2021,2000,g 13.0,4.0
# From MPC109148
345P/LINEAR,e,2.7272,154.5079,196.4201,4.038128,0.1214602,0.22116268,225.9619,08/22.0/2021,2000,g 12.0,4.0
# From MPC110086
346P/Catalina,e,22.1880,102.4642,335.9668,4.475391,0.1041017,0.50246650,171.8391,08/22.0/2021,2000,g 14.0,4.0
# From MPC108599
347P/PANSTARRS,e,11.7503,261.0276,98.3510,3.605740,0.1439503,0.38586000,259.6602,08/22.0/2021,2000,g 15.0,4.0
# From MPEC 2020-SI8
348P/PANSTARRS,e,17.7404,312.9406,135.6507,3.150002,0.1762941,0.30668564,329.2384,08/22.0/2021,2000,g 14.0,4.0
# From MPC112394
349P/Lemmon,e,5.4909,331.7426,256.0343,3.573599,0.1458966,0.29885909,212.7069,08/22.0/2021,2000,g 14.0,4.0
# From MPC111775
350P/McNaught,e,7.3583,65.3240,140.0356,4.090168,0.1191495,0.09179893,160.4822,08/22.0/2021,2000,g 14.0,4.0
# From MPC105244
351P/Wiegert-PANSTARRS,e,12.7868,283.4472,352.6756,4.437719,0.1054301,0.29576586,221.7010,08/22.0/2021,2000,g 12.5,4.0
# From MPC110086
352P/Skiff,e,21.0096,28.0512,309.2171,6.638776,0.0576198,0.61824349,87.6572,08/22.0/2021,2000,g 11.5,4.0
# From MPEC 2020-AA5
353P/McNaught,e,28.4231,121.5598,230.3920,4.171104,0.1156984,0.47022806,154.9048,08/22.0/2021,2000,g 14.5,4.0
# From MPC105545
354P/LINEAR,e,5.2556,320.1293,132.9263,2.289438,0.2845186,0.12568503,137.0985,08/22.0/2021,2000,g 15.5,4.0
# From MPEC 2020-AA5
355P/LINEAR-NEAT,e,11.0409,51.4309,336.2568,3.471497,0.1523803,0.50732338,214.6633,08/22.0/2021,2000,g 15.5,2.0
# From MPEC 2021-F20
356P/WISE,e,9.6376,160.7961,225.9876,4.159219,0.1161947,0.35517434,156.0896,08/22.0/2021,2000,g 14.0,4.0
# From MPC114609
357P/Hill,e,6.3123,44.5663,1.3899,4.460099,0.1046375,0.43494978,123.5606,08/22.0/2021,2000,g 15.5,4.0
# From MPEC 2020-HN5
358P/PANSTARRS,e,11.0583,85.7057,299.7337,3.147399,0.1765129,0.23854630,216.7843,08/22.0/2021,2000,g 18.0,4.0
# From MPC110086
359P/LONEOS,e,10.2675,149.7558,200.1702,4.639606,0.0986240,0.32416913,144.0984,08/22.0/2021,2000,g 13.5,4.0
# From MPC108599
360P/WISE,e,24.1074,2.1902,354.1346,3.701931,0.1383763,0.49901355,202.4670,08/22.0/2021,2000,g 19.5,6.0
# From MPC114609
361P/Spacewatch,e,13.8943,203.2504,219.0396,4.938091,0.0898184,0.43817706,102.9955,08/22.0/2021,2000,g 12.0,4.0
# From MPEC 2017-V13
362P/,e,15.5563,192.5628,53.7011,3.969259,0.1246350,0.27932926,227.4537,08/22.0/2021,2000,g 12.9,2.0
# From MPC114609
363P/Lemmon,e,5.4077,146.8937,341.2608,3.553545,0.1471334,0.52437403,186.8027,08/22.0/2021,2000,g 17.5,4.0
# From MPEC 2021-F20
364P/PANSTARRS,e,12.1386,46.1840,212.0122,2.879362,0.2017250,0.72213135,232.9375,08/22.0/2021,2000,g 17.0,2.0
# From MPC111775
